#dP2018 10 18  0  0  0.00000000      96 __u+U IGS08 FIT  IAC
## 2023 345600.00000000   900.00000000 58409 0.0000000000000
+   91   C01C02C03C04C05C06C07C08C09C10C11C12C13C14E01E02E03
+        E04E05E07E08E09E11E12E14E18E19E21E24E25E26E27E30E31
+        G01G02G03G06G07G08G09G10G11G12G13G14G15G16G17G18G19
+        G20G21G22G23G24G25G26G27G28G29G30G31G32J01J02J03J07
+        R01R02R03R04R05R07R08R09R10R11R13R14R15R16R17R18R19
+        R20R21R22R23R24R26  0  0  0  0  0  0  0  0  0  0  0
++        12 12 12 12 12  8  8  8  8  8  7  7  8  7  7  7  7
++         7  7  7  7  7  7  7  7  7  7  7  7  7  7  7  7  6
++         3  3  3  3  3  3  3  3  3  3  3  3  3  3  3  3  3
++         3  3  3  3  3  3  3  3  3  3  3  3  3  9 10 11  0
++         5  5  5  5  5  5  5  5  5  5  5  5  5  5  5  5  5
++         5  5  5  5  5  8  0  0  0  0  0  0  0  0  0  0  0
%c M  cc GPS ccc cccc cccc cccc cccc ccccc ccccc ccccc ccccc
%c cc cc ccc ccc cccc cccc cccc cccc ccccc ccccc ccccc ccccc
%f  1.2500000  1.025000000  0.00000000000  0.000000000000000
%f  0.0000000  0.000000000  0.00000000000  0.000000000000000
%i    0    0    0    0      0      0      0      0         0
%i    0    0    0    0      0      0      0      0         0
/* INFORMATION & ANALYSIS CENTER (IAC)            FINAL DATA
/* S/V CLOCKS ARE ALIGNED TO GPS & GLONASS TIME RESPECTIVELY
/* USING THE BROADCAST EPHEMERIS                            
/* PCV:IGS14_2022 OL/AL:FES2004  NONE     YN ORB:CoN CLK:CoN
*  2018 10 18  1 15  0.00000000
PC01 -32311.012533  27058.078849     94.636176   -228.472038
PC02   4440.090335  41945.518977    704.697984    -33.330747
PC03 -14824.107942  39489.083424    266.128044   -245.925900
PC04 -39610.765957  14358.035043    140.592288    -72.667191
PC05  21899.071562  36030.270459    735.684951    219.454754
PC06 -25422.187575  30890.590538 -13549.054288    390.419317
PC07  -9889.720637  35268.177998 -20329.875418    -98.961568
PC08 -13243.324109  18219.238402  35684.577509      1.032962
PC09 -10674.626506  30505.449668 -27077.082152    207.285476
PC10    634.059177  41044.854673  -8558.674455   -162.460304
PC11  27411.542837    155.310408   5518.739929     -0.116185
PC12  15508.003466  11419.094502  20290.717006    156.846877
PC13   4378.383733  25717.631714  33202.704054   -331.057369
PC14  16693.154468    424.274468 -22299.238614    625.869388
PE01  15202.527493  -5769.781019  24742.879886   -458.353666
PE02 -15181.615337   5807.757131 -24729.358363     31.593464
PE03 -23821.988303  13695.810383  10985.919208    -89.431253
PE04  15670.357945 -24016.679824   7339.590212   -139.877623
PE05 -18064.363992  -4700.566489  22971.634498    175.153127
PE07   1760.613142  20282.808393 -21479.233806    -58.454734
PE08 -15449.009445  24129.154122  -7408.762795   6480.922527
PE09  -1821.139800 -20203.690233  21564.950754   6644.727670
PE11 -12579.700981 -17074.182558 -20658.676866   5697.364755
PE12  10154.909198 -14119.425992 -23949.975093   5295.664107
PE14  13630.311887 -20635.537664 -17713.721564   6503.133627
PE18 -22379.125974  13210.359813   6052.757023   5824.799603
PE19  23794.254397 -12216.442484 -12676.509338    -11.337138
PE21  17110.074805  16270.495569  17852.401897   -500.003876
PE24  -9045.240936 -28155.247069  -1144.912481   6436.193631
PE25 -17096.606581 -16323.343595 -17809.538069   2010.210769
PE26  27291.780601  10122.968409   5415.991576   5352.794657
PE27   8807.656585  28252.889576    481.530454    608.964297
PE30  -4404.786968  24046.899311 -16689.612099   5424.403556
PE31   4665.979086 -23664.514897  17180.810210   1007.122574
PG01 -22651.821691 -13736.376254   3343.410441   -101.863083
PG02   9820.348076  19567.599868  15764.325239    -33.031253
PG03 -13618.370286  -9315.582573  20790.594489    150.162997
PG06  -5456.721100  14316.263798  21724.308650    348.023013
PG07 -21228.411000  -1912.012136 -15890.773738    104.862321
PG08 -12520.866919 -10131.902029 -21100.972648   -118.990696
PG09 -24854.861145   5770.325913   7353.262096    499.672277
PG10  11165.605188 -20139.915339 -13036.525062    173.643535
PG11 -23421.720750 -10346.424183  -7181.491666   -708.897299
PG12  10541.934501  14649.274074  19358.847292    298.989075
PG13   3968.142434  14572.059450 -21959.945812    -86.813653
PG14  11755.975329 -16843.195291  17042.768631    -96.631215
PG15  17053.722587   7137.531939 -19435.038454   -342.745105
PG16   -155.897758 -25344.886073  -7332.839890      3.673699
PG17 -19859.863469  14751.785819   9892.480135    -42.841882
PG18 -18827.610960 -17871.865860  -6459.830050     69.386526
PG19 -12353.696110  16073.648719  16930.228681   -392.540090
PG20  14290.830238 -11513.309149 -19286.283379    517.435250
PG21  19193.684770  -2532.842690 -17360.964918   -319.547725
PG22 -12046.615831 -16862.206193  16863.699557   -549.683945
PG23 -22252.324349  -1609.326711  15020.522517   -208.453860
PG24  21761.588525  15470.259823  -1375.936142    -56.888406
PG25  14895.114517    395.696684  21795.803033   -663.319812
PG26   4529.742474 -25869.623129   3387.354403     12.501006
PG27  -1169.592782 -15444.482126 -21623.785302     -6.465833
PG28 -12933.858475  18084.437816 -13949.594956    750.260672
PG29  24967.558500  -3437.724626   8362.562092    354.831164
PG30 -14069.887042   8247.727069 -20968.928404      8.652835
PG31   3746.899787 -15660.503839  21074.981677     86.011640
PG32  18311.592345 -16264.475775  10198.676237   -389.353124
PJ01 -28104.919902  29478.321575  15876.404471   -309.135333
PJ02 -19736.071286  20668.697560 -26756.215625      0.250703
PJ03 -29845.658131  29180.820854  11616.620529      0.325168
PJ07 -25372.275550  33668.881581     10.537576 999999.999999
PR01  11263.705163   2684.470151 -22732.792025     33.614415
PR02  16507.444195 -15549.841822 -11594.140179    335.020720
PR03  10924.184270 -22280.805199   5845.750051    146.261895
PR04  -1355.241116 -15678.288844  20080.722281    280.313819
PR05 -12154.102331   -518.955747  22427.887830     13.354365
PR07 -10767.216024  22295.057791  -6186.151443    -49.559121
PR08    765.690084  16185.448475 -19656.244524     20.880232
PR09  -9446.413414   5930.027850 -22919.973573     33.991973
PR10   1160.697048  19336.965136 -16558.402872     33.714934
PR11  11731.625191  22619.247161    337.689972    -44.236680
PR13   9440.615158  -5356.347438  23073.826246    -15.806726
PR14  -1124.324962 -19441.162166  16505.138524     32.085834
PR15  -9487.796096 -23228.945519   4317.419028    -17.838566
PR16 -15394.127308 -12860.667100 -15701.487879    104.193345
PR17   8608.160873  -9691.708281 -21970.959530    173.090152
PR18 -10222.244850 -10120.220589 -21067.027108     26.229549
PR19 -23386.133152  -5522.514422  -8545.298952    -60.753219
PR20 -23077.773663   3054.604105  10477.109615   -355.963528
PR21  -8033.503957   9720.382562  22164.760612     -9.462287
PR22  12333.869971   9752.728103  20046.917151    -64.953938
PR23  24955.692753   3232.846156   4191.397685    185.034316
PR24  22341.310535  -4068.379404 -11640.260916   -172.690222
PR26 -23647.876135   2878.804936   9085.117811     24.888787
EOF
